#dP2020 12 28  0  0  0.00000000      97 __u+U IGS14 FIT  IAC
## 2138  86400.00000000   900.00000000 59211 0.0000000000000
+  120   C01C02C03C04C05C06C07C08C09C10C11C13C14C16C19C20C21
+        C22C23C24C25C26C27C28C29C30C32C33C34C35C36C37C38C39
+        C40C43C44C45C46E01E02E03E04E05E07E08E09E11E12E13E14
+        E15E18E19E21E24E25E26E27E30E31E33E36G01G02G03G04G05
+        G06G07G08G09G10G11G12G13G14G15G16G17G18G19G20G21G22
+        G23G24G25G26G27G28G29G30G31G32J01J02J03J07R01R02R03
+        R04R05R07R08R09R11R12R13R14R15R16R17R18R19R20R21R22
+        R24  0  0  0  0  0  0  0  0  0  0  0  0  0  0  0  0
++        13 13 13 13 13  8  9  8  8  8  7  8  7  8  8  8  7
++         7  7  7  7  7  8  7  8  8  8  7  8  8  8  7  9  9
++        10  9  9  9  9  4  4  4  5  4  4  4  5  4  4  4  5
++         4  4  4  4  4  4  4  4  4  4  4  5  3  4  4  3  3
++         3  3  3  3  3  4  4  3  3  3  4  4  3  4  3  3  3
++         3  3  4  3  3  3  3  3  4  4  8  8  8 14  6  6  5
++         5  5  6  6  6  9  5  6  5  5  6  5  5  6  6  6  6
++         6  0  0  0  0  0  0  0  0  0  0  0  0  0  0  0  0
%c M  cc GPS ccc cccc cccc cccc cccc ccccc ccccc ccccc ccccc
%c cc cc ccc ccc cccc cccc cccc cccc ccccc ccccc ccccc ccccc
%f  1.2500000  1.025000000  0.00000000000  0.000000000000000
%f  0.0000000  0.000000000  0.00000000000  0.000000000000000
%i    0    0    0    0      0      0      0      0         0
%i    0    0    0    0      0      0      0      0         0
/* INFORMATION & ANALYSIS CENTER (IAC)            FINAL DATA
/* S/V CLOCKS ARE ALIGNED TO GNSS TIME                      
/* G:C1WC2W R:C1PC2P E:C1XC5X C:C2IC6I J:C1CC2S             
/* PCV:IGS14_2134 OL/AL:FES2004  NONE     YN ORB:CoN CLK:CoN
*  2020 12 28 17 45  0.00000000
PC01 -34307.198152  24501.474115   -131.605745   -728.849324
PC02   4321.638639  41954.556428     81.419526    636.967257
PC03 -14788.786166  39449.485490   1010.992970    276.390639
PC04 -39589.996389  14478.308502    573.330394   -288.754673
PC05  21859.418619  36064.886743   -192.440256   -405.192990
PC06 -21031.073712  21974.983117 -28979.731911     90.142991
PC07 -17180.072758  38155.311907  -1878.925618   -173.613961
PC08  -3132.399550  28235.939462  31399.808946   -838.054817
PC09  -2505.733741  24409.028032 -34059.090560    841.550605
PC10  -7027.309910  40061.264972  10403.109725   -114.228550
PC11  21877.013404  -7466.972857 -15597.119143   -848.264531
PC13   7394.629947  35196.926650  22346.730187     73.345431
PC14  19759.026519 -18184.592618  -7669.490539   -219.436028
PC16 -18859.447115  22393.516445 -30340.867309   -643.222699
PC19 -15439.035621  23188.082333  -1524.363906    670.530219
PC20 -20799.357380  11399.102661  14694.139846   -909.937651
PC21  13980.068870   7743.319168 -22866.795593   -770.874030
PC22   -961.806811  21825.261251 -17353.564614   -827.774908
PC23  -7907.566648 -26378.862461   4483.688346   -887.702194
PC24  16939.082443   -671.739741  22162.746761   -734.194297
PC25   5499.891368 -19902.936938  18755.007419   -877.758696
PC26  18008.304250  16919.967126  12996.977487    958.385773
PC27 -24132.374395  -9929.085388  -9924.633614    457.024763
PC28  -7262.822662 -15997.881509 -21670.966922   -128.513026
PC29 -13285.475054  13221.105847  20673.957613    330.918783
PC30 -26844.777443   2664.515155   7186.855137    423.617589
PC32 -14026.190475  -7696.589602  22872.203194   -881.257536
PC33  15361.215744 -23259.809813   1459.971172   -889.564178
PC34  26617.068806  -3033.193982  -7777.497868   -775.961965
PC35   7468.714359  15834.474593  21725.351002   -492.031713
PC36  -6157.730925  19563.141528 -18905.144843   -791.535066
PC37 -17403.126303 -17946.938210 -12360.285003   -861.768189
PC38  -3602.319233  29901.520995  29579.462739    120.539782
PC39 -14703.970840  24037.780351 -31401.430016     26.801457
PC40 -16093.883082  38392.509113   6190.061454    115.552537
PC43  13781.134669 -13090.889622 -20423.925383   -526.849577
PC44  24299.907423   9283.077702  10060.111706    -42.203163
PC45   8045.986334  26364.118136  -4445.240081    320.429731
PC46 -16536.818723   1619.807625 -22410.187534    478.101266
PE01 -14312.528392  16290.205747 -20151.203768  -1013.000686
PE02  14281.086805 -16366.780152  20099.887464    186.956708
PE03  25404.080461 -15024.444401   2326.310861   -381.094610
PE04 -10851.676351  20400.139697 -18503.007006   -677.337235
PE05  25246.858891   -753.495681 -15439.453301   -317.519723
PE07 -10361.344008 -13824.062869  24032.878719   -480.463294
PE08  10508.971208 -20349.912240  18750.914175   6070.354550
PE09  10534.005948  13545.351985 -24123.420330   5817.630478
PE11  19003.535472  20097.693932  10528.110515   6561.856129
PE12   -176.834681  18060.099593  23457.170920   5434.606857
PE13 -18832.011713 -20078.446086 -10868.864622    409.227390
PE14  25362.117898   1804.007151   8120.045791  -1275.350783
PE15    -24.943090 -18025.875108 -23463.648769    836.962935
PE18 -20434.743005 -12081.424185 -18829.636787  -1393.715882
PE19 -26230.413847  13721.420276   -151.948490    164.406881
PE21 -16071.545927  -5249.815225 -24294.906006   -639.771140
PE24   8123.645843  24840.212529  13916.413156   -659.785394
PE25  16046.673952   5468.771164  24273.089039   -523.176730
PE26 -26497.443905  -9931.203456   8684.708233   2329.923290
PE27  -8557.734084 -24387.161220 -14410.935661     62.810828
PE30   4533.653882 -28883.779018   4544.675995   3308.003058
PE31  -3927.440676  29087.038072  -3863.706389   -476.880199
PE33 -18777.572424   5379.049171  22254.013242   -464.422354
PE36  26531.962707  10343.284399  -8066.773408    461.746901
PG01 -21288.121105 -13134.245970   9177.294469    789.151784
PG02  11428.063644  21125.760335  11989.046257   -559.684580
PG03 -14410.431586  -4234.099603  21825.031547    -41.759270
PG04 -24003.413801  -2546.717758  11137.291534   -168.206249
PG05   4832.080297  22137.447001 -13862.594511    -29.534606
PG06  -1781.853926  17304.649010  20119.929517     -4.521586
PG07 -18060.263105   1091.473298 -19272.780023      0.029271
PG08 -18661.855650  -7315.076040 -17560.603996     -4.553267
PG09 -25562.322568   7251.596008   -125.428157   -306.620662
PG10  11684.665704 -22305.609270  -7910.999724    -26.509596
PG11 -23064.086988 -11784.818783  -5390.440601    -68.623302
PG12  12389.428868   8767.018915  21571.140736     20.650012
PG13   8957.900804  13561.141876 -21165.771952     79.858897
PG14 -13768.215716  20566.018970  -9644.902875     74.892621
PG15  20165.192441   5749.729349 -16863.394105   -180.162759
PG16  -1819.857230 -22361.356926 -14068.680266   -256.945443
PG17 -16108.491731  14158.757732  16090.008235    373.045393
PG18  16280.718675  -3575.432760 -20696.692468    336.745123
PG19  -9344.971402  14761.234756  19696.943418    -59.296870
PG20  14803.544379 -13024.913473 -17734.342910    525.415172
PG21 -21022.602128 -16532.196540   2036.469659     81.798740
PG22 -12449.189549 -13202.792767  19640.036818   -707.821296
PG23  15306.297190 -14108.153396 -16503.087107    113.198352
PG24  21762.043213  14863.315512   4471.209027      4.479391
PG25  16049.470789  -6397.650677  19846.883703     48.629973
PG26   4081.005852 -25977.692639  -2591.056992     21.447711
PG27  -6200.534336 -13753.572957 -22030.001055    -44.457566
PG28 -12541.913093  22726.107530  -5488.933251    637.206988
PG29  26220.789776  -4270.707816    948.998252   -264.948679
PG30 -10449.259505  11772.487983 -21340.080170   -359.873487
PG31    259.986383 -18792.492608  18506.065976    -90.438435
PG32  14877.454314 -15447.307400  15649.302835     11.024355
PJ01 -35052.560375  23389.865378   6090.774163   -335.376969
PJ02 -20276.663809  27947.145662 -19653.869173      0.325092
PJ03 -28508.513044  24987.972567  23731.718299     -4.987362
PJ07 -25348.341262  33707.631439    -11.617887      0.087056
PR01  -4709.158831 -10694.970619  22669.787285     72.691748
PR02 -18534.734792   6768.852117  16236.293954    460.540803
PR03 -18634.081723  17462.537637    104.932589     28.136087
PR04  -8293.445712  18065.467108 -15970.492976     67.611826
PR05   6636.886854   8607.993136 -23072.451334     63.732080
PR07  18364.334895 -17657.314590    636.432299    -41.975177
PR08   8154.305337 -18116.536063  16032.512760    -56.540574
PR09  12135.056080   3858.499668  22107.291336     15.536627
PR11  -2985.053773 -24458.991986   6622.037850      5.138324
PR12 -10386.978479 -20367.652767 -11258.339438    192.044217
PR13 -11960.590059  -4390.697941 -22114.200291    -48.576981
PR14  -6364.508833  14576.897703 -19928.877460     59.231624
PR15   2778.617812  24582.725205  -6213.425810    106.148815
PR16  11150.403111  19664.066135  11926.448438     -9.626008
PR17 -15625.877121   4571.911506  19637.361536    386.362897
PR18   1330.687644  11197.278538  22896.155004     61.234759
PR19  16878.398208  12496.929242  14489.667428   -125.598603
PR20  24303.371187   5993.689682  -4785.345114   -429.888545
PR21  14733.918485  -4991.871182 -20217.007379   -176.409646
PR22  -2691.512172 -11470.600785 -22643.204290    -89.443207
PR24 -24351.704587  -5210.618837   5511.896742     25.717648
EOF
